$$SOE
2459580.500000000, A.D. 2022-Jan-01 00:00:00.0000, 3.455004453642762E+07, -4.922342565461499E+08, -6.640787148024797E+06,
2459587.500000000, A.D. 2022-Jan-08 00:00:00.0000, 4.384945660726292E+07, -4.906590982576799E+08, -9.126438162290275E+06,
2459594.500000000, A.D. 2022-Jan-15 00:00:00.0000, 5.313108840822213E+07, -4.888847575476602E+08, -1.160838361791334E+07,
2459601.500000000, A.D. 2022-Jan-22 00:00:00.0000, 6.239107234492590E+07, -4.869109866350449E+08, -1.408559321865427E+07,
2459608.500000000, A.D. 2022-Jan-29 00:00:00.0000, 7.162551152991611E+07, -4.847376084704685E+08, -1.655702821101516E+07,
2459615.500000000, A.D. 2022-Feb-05 00:00:00.0000, 8.083047844449343E+07, -4.823645189982064E+08, -1.902164145981386E+07,
2459622.500000000, A.D. 2022-Feb-12 00:00:00.0000, 9.000201583410726E+07, -4.797916905030258E+08, -2.147837782470655E+07,
2459629.500000000, A.D. 2022-Feb-19 00:00:00.0000, 9.913613851506191E+07, -4.770191736720136E+08, -2.392617452325481E+07,
2459636.500000000, A.D. 2022-Feb-26 00:00:00.0000, 1.082288347833456E+08, -4.740470990929959E+08, -2.636396142011762E+07,
2459643.500000000, A.D. 2022-Mar-05 00:00:00.0000, 1.172760675869862E+08, -4.708756788045255E+08, -2.879066130825165E+07,
2459650.500000000, A.D. 2022-Mar-12 00:00:00.0000, 1.262737756858805E+08, -4.675052079609116E+08, -3.120519020873886E+07,
2459657.500000000, A.D. 2022-Mar-19 00:00:00.0000, 1.352178748722878E+08, -4.639360665816164E+08, -3.360645769438618E+07,
2459664.500000000, A.D. 2022-Mar-26 00:00:00.0000, 1.441042592767071E+08, -4.601687213879734E+08, -3.599336724054611E+07,
2459671.500000000, A.D. 2022-Apr-02 00:00:00.0000, 1.529288028295864E+08, -4.562037277801303E+08, -3.836481661484835E+07,
2459678.500000000, A.D. 2022-Apr-09 00:00:00.0000, 1.616873611536756E+08, -4.520417319469364E+08, -4.071969833129951E+07,
2459685.500000000, A.D. 2022-Apr-16 00:00:00.0000, 1.703757742464264E+08, -4.476834724527228E+08, -4.305690014893892E+07,
2459692.500000000, A.D. 2022-Apr-23 00:00:00.0000, 1.789898686848868E+08, -4.431297802143860E+08, -4.537530541083044E+07,
2459699.500000000, A.D. 2022-Apr-30 00:00:00.0000, 1.875254574833962E+08, -4.383815791099906E+08, -4.767379323589137E+07,
2459706.500000000, A.D. 2022-May-07 00:00:00.0000, 1.959783406676557E+08, -4.334398891868238E+08, -4.995123900611809E+07,
2459713.500000000, A.D. 2022-May-14 00:00:00.0000, 2.043443079564037E+08, -4.283058294253776E+08, -5.220651502865484E+07,
2459720.500000000, A.D. 2022-May-21 00:00:00.0000, 2.126191415219190E+08, -4.229806192956799E+08, -5.443849112467027E+07,
2459727.500000000, A.D. 2022-May-28 00:00:00.0000, 2.207986183532504E+08, -4.174655800601292E+08, -5.664603517983675E+07,
2459734.500000000, A.D. 2022-Jun-04 00:00:00.0000, 2.288785125021262E+08, -4.117621361318102E+08, -5.882801370794410E+07,
2459741.500000000, A.D. 2022-Jun-11 00:00:00.0000, 2.368545973584315E+08, -4.058718164828762E+08, -6.098329244139129E+07,
2459748.500000000, A.D. 2022-Jun-18 00:00:00.0000, 2.447226479950894E+08, -3.997962560862278E+08, -6.311073695159206E+07,
2459755.500000000, A.D. 2022-Jun-25 00:00:00.0000, 2.524784436121225E+08, -3.935371974191382E+08, -6.520921330505759E+07,
2459762.500000000, A.D. 2022-Jul-02 00:00:00.0000, 2.601177702142284E+08, -3.870964920890664E+08, -6.727758877299072E+07,
2459769.500000000, A.D. 2022-Jul-09 00:00:00.0000, 2.676364239128112E+08, -3.804761023991294E+08, -6.931473261583717E+07,
2459776.500000000, A.D. 2022-Jul-16 00:00:00.0000, 2.750302147978001E+08, -3.736781017655256E+08, -7.131951684934622E+07,
2459783.500000000, A.D. 2022-Jul-23 00:00:00.0000, 2.822949691801966E+08, -3.667046739041886E+08, -7.329081678401619E+07,
2459790.500000000, A.D. 2022-Jul-30 00:00:00.0000, 2.894265302876698E+08, -3.595581141337954E+08, -7.522751161912465E+07,
2459797.500000000, A.D. 2022-Aug-06 00:00:00.0000, 2.964207610108315E+08, -3.522408321391575E+08, -7.712848536767699E+07,
2459804.500000000, A.D. 2022-Aug-13 00:00:00.0000, 3.032735478767828E+08, -3.447553534336746E+08, -7.899262781100936E+07,
2459811.500000000, A.D. 2022-Aug-20 00:00:00.0000, 3.099808046800914E+08, -3.371043200179273E+08, -8.081883537961608E+07,
2459818.500000000, A.D. 2022-Aug-27 00:00:00.0000, 3.165384758384457E+08, -3.292904909545280E+08, -8.260601202521071E+07,
2459825.500000000, A.D. 2022-Sep-03 00:00:00.0000, 3.229425397197664E+08, -3.213167429633940E+08, -8.435307011527011E+07,
2459832.500000000, A.D. 2022-Sep-10 00:00:00.0000, 3.291890120292951E+08, -3.131860710073855E+08, -8.605893135593392E+07,
2459839.500000000, A.D. 2022-Sep-17 00:00:00.0000, 3.352739492837301E+08, -3.049015888640078E+08, -8.772252774564818E+07,
2459846.500000000, A.D. 2022-Sep-24 00:00:00.0000, 3.411934524295752E+08, -2.964665297276770E+08, -8.934280256863846E+07,
2459853.500000000, A.D. 2022-Oct-01 00:00:00.0000, 3.469436708419977E+08, -2.878842468577898E+08, -9.091871145124507E+07,
2459860.500000000, A.D. 2022-Oct-08 00:00:00.0000, 3.525208071083177E+08, -2.791582137435173E+08, -9.244922347511497E+07,
2459867.500000000, A.D. 2022-Oct-15 00:00:00.0000, 3.579211216613430E+08, -2.702920225804509E+08, -9.393332216336109E+07,
2459874.500000000, A.D. 2022-Oct-22 00:00:00.0000, 3.631409350762920E+08, -2.612893827378928E+08, -9.537000627653874E+07,
2459881.500000000, A.D. 2022-Oct-29 00:00:00.0000, 3.681766305224928E+08, -2.521541218034471E+08, -9.675829085809903E+07,
2459888.500000000, A.D. 2022-Nov-05 00:00:00.0000, 3.730246584631235E+08, -2.428901864561287E+08, -9.809720849635150E+07,
2459895.500000000, A.D. 2022-Nov-12 00:00:00.0000, 3.776815416328577E+08, -2.335016418942965E+08, -9.938581051789103E+07,
2459902.500000000, A.D. 2022-Nov-19 00:00:00.0000, 3.821438795681151E+08, -2.239926707667404E+08, -1.006231681231306E+08,
2459909.500000000, A.D. 2022-Nov-26 00:00:00.0000, 3.864083529455019E+08, -2.143675719985540E+08, -1.018083735188978E+08,
2459916.500000000, A.D. 2022-Dec-03 00:00:00.0000, 3.904717278874251E+08, -2.046307595178185E+08, -1.029405410625566E+08,
2459923.500000000, A.D. 2022-Dec-10 00:00:00.0000, 3.943308602730177E+08, -1.947867608593189E+08, -1.040188084185138E+08,
2459930.500000000, A.D. 2022-Dec-17 00:00:00.0000, 3.979827000711685E+08, -1.848402156658176E+08, -1.050423377295195E+08,
2459937.500000000, A.D. 2022-Dec-24 00:00:00.0000, 4.014242957960800E+08, -1.747958741487431E+08, -1.060103168159919E+08,
2459944.500000000, A.D. 2022-Dec-31 00:00:00.0000, 4.046527994329521E+08, -1.646585953966980E+08, -1.069219604247288E+08,
2459951.500000000, A.D. 2023-Jan-07 00:00:00.0000, 4.076654719467019E+08, -1.544333445653158E+08, -1.077765114568593E+08,
2459958.500000000, A.D. 2023-Jan-14 00:00:00.0000, 4.104596873974912E+08, -1.441251884493282E+08, -1.085732419515485E+08,
2459965.500000000, A.D. 2023-Jan-21 00:00:00.0000, 4.130329350067955E+08, -1.337392926083446E+08, -1.093114540224449E+08,
2459972.500000000, A.D. 2023-Jan-28 00:00:00.0000, 4.153828228280784E+08, -1.232809202386997E+08, -1.099904810949609E+08,
2459979.500000000, A.D. 2023-Feb-04 00:00:00.0000, 4.175070828015662E+08, -1.127554297594686E+08, -1.106096891739751E+08,
2459986.500000000, A.D. 2023-Feb-11 00:00:00.0000, 4.194035753882790E+08, -1.021682713038956E+08, -1.111684779904146E+08,
2459993.500000000, A.D. 2023-Feb-18 00:00:00.0000, 4.210702937107359E+08, -9.152498293922919E+07, -1.116662820859953E+08,
2460000.500000000, A.D. 2023-Feb-25 00:00:00.0000, 4.225053674530283E+08, -8.083118677813713E+07, -1.121025718711107E+08,
2460007.500000000, A.D. 2023-Mar-04 00:00:00.0000, 4.237070666113417E+08, -7.009258496520361E+07, -1.124768546609402E+08,
2460014.500000000, A.D. 2023-Mar-11 00:00:00.0000, 4.246738051117019E+08, -5.931495554082783E+07, -1.127886756891703E+08,
2460021.500000000, A.D. 2023-Mar-18 00:00:00.0000, 4.254041443297601E+08, -4.850414823539242E+07, -1.130376191042482E+08,
2460028.500000000, A.D. 2023-Mar-25 00:00:00.0000, 4.258967967030644E+08, -3.766608024507631E+07, -1.132233089669508E+08,
2460035.500000000, A.D. 2023-Apr-01 00:00:00.0000, 4.261506298464917E+08, -2.680673160021791E+07, -1.133454102518409E+08,
2460042.500000000, A.D. 2023-Apr-08 00:00:00.0000, 4.261646705425907E+08, -1.593213890485913E+07, -1.134036296920571E+08,
2460049.500000000, A.D. 2023-Apr-15 00:00:00.0000, 4.259381062601683E+08, -5.048388558987819E+06, -1.133977163409052E+08,
2460056.500000000, A.D. 2023-Apr-22 00:00:00.0000, 4.254702859996803E+08, 5.838387475888290E+06, -1.133274622629810E+08,
2460063.500000000, A.D. 2023-Apr-29 00:00:00.0000, 4.247607231870576E+08, 1.672201561221515E+07, -1.131927034177730E+08,
2460070.500000000, A.D. 2023-May-06 00:00:00.0000, 4.238090988436161E+08, 2.759628604611143E+07, -1.129933204253046E+08,
2460077.500000000, A.D. 2023-May-13 00:00:00.0000, 4.226152640448070E+08, 3.845495873861523E+07, -1.127292391945355E+08,
2460084.500000000, A.D. 2023-May-20 00:00:00.0000, 4.211792418919005E+08, 4.929176946697906E+07, -1.124004314736449E+08,
2460091.500000000, A.D. 2023-May-27 00:00:00.0000, 4.195012291803501E+08, 6.010043590536491E+07, -1.120069153399752E+08,
2460098.500000000, A.D. 2023-Jun-03 00:00:00.0000, 4.175815978132145E+08, 7.087466374901557E+07, -1.115487556305779E+08,
2460105.500000000, A.D. 2023-Jun-10 00:00:00.0000, 4.154208959749769E+08, 8.160815285556640E+07, -1.110260643146861E+08,
2460112.500000000, A.D. 2023-Jun-17 00:00:00.0000, 4.130198491472961E+08, 9.229460333001283E+07, -1.104390008194771E+08,
2460119.500000000, A.D. 2023-Jun-24 00:00:00.0000, 4.103793612797270E+08, 1.029277215943179E+08, -1.097877723322989E+08,
2460126.500000000, A.D. 2023-Jul-01 00:00:00.0000, 4.075005163608291E+08, 1.135012272543247E+08, -1.090726340327219E+08,
2460133.500000000, A.D. 2023-Jul-08 00:00:00.0000, 4.043845787085882E+08, 1.240088615722305E+08, -1.082938890315464E+08,
2460140.500000000, A.D. 2023-Jul-15 00:00:00.0000, 4.010329907011590E+08, 1.344443947011765E+08, -1.074518881306705E+08,
$$EOE